{
  "type": "FeatureCollection",
  "features": [
    {
      "type": "Feature",
      "properties": {
        "norad_id": 36238,
        "name": "FENGYUN 1C DEB",
        "group": "fengyun-1c-debris",
        "lat": 20.40225134468275,
        "lon": -29.854698350221252,
        "alt_km": 862.7209303144245,
        "timestamp": "2025-12-27T10:28:59.082868+00:00",
        "meta_object_name": "FENGYUN 1C DEB",
        "meta_object_id": "1999-025DVP",
        "meta_epoch": "2025-12-26T08:52:56.657280",
        "meta_mean_motion": 14.12394497,
        "meta_eccentricity": 0.0020168,
        "meta_inclination": 98.6489,
        "meta_ra_of_asc_node": 332.3612,
        "meta_arg_of_pericenter": 240.996,
        "meta_mean_anomaly": 118.9191,
        "meta_ephemeris_type": 0,
        "meta_classification_type": "U",
        "meta_norad_cat_id": 36238,
        "meta_element_set_no": 999,
        "meta_rev_at_epoch": 87210,
        "meta_bstar": 8.9358e-05,
        "meta_mean_motion_dot": 1.23e-06,
        "meta_mean_motion_ddot": 0,
        "tle_line1": "1 36238U 99025DVP 25360.37010020  .00000123  00000+0  89358-4 0  9998",
        "tle_line2": "2 36238  98.6489 332.3612 0020168 240.9960 118.9191 14.12394497872107"
      },
      "geometry": {
        "type": "Point",
        "coordinates": [
          -29.854698350221252,
          20.40225134468275
        ]
      }
    },
    {
      "type": "Feature",
      "properties": {
        "norad_id": 36244,
        "name": "FENGYUN 1C DEB",
        "group": "fengyun-1c-debris",
        "lat": -49.86917387878929,
        "lon": -78.4376624144236,
        "alt_km": 779.9744218204069,
        "timestamp": "2025-12-27T10:28:59.082878+00:00",
        "meta_object_name": "FENGYUN 1C DEB",
        "meta_object_id": "1999-025DVV",
        "meta_epoch": "2025-12-25T18:38:39.990336",
        "meta_mean_motion": 14.25065272,
        "meta_eccentricity": 0.00498125,
        "meta_inclination": 98.9262,
        "meta_ra_of_asc_node": 110.6194,
        "meta_arg_of_pericenter": 246.8234,
        "meta_mean_anomaly": 112.7693,
        "meta_ephemeris_type": 0,
        "meta_classification_type": "U",
        "meta_norad_cat_id": 36244,
        "meta_element_set_no": 999,
        "meta_rev_at_epoch": 92164,
        "meta_bstar": 0.0017678365,
        "meta_mean_motion_dot": 4.153e-05,
        "meta_mean_motion_ddot": 0,
        "tle_line1": "1 36244U 99025DVV 25359.77685174  .00004153  00000+0  17678-2 0  9996",
        "tle_line2": "2 36244  98.9262 110.6194 0049812 246.8234 112.7693 14.25065272921647"
      },
      "geometry": {
        "type": "Point",
        "coordinates": [
          -78.4376624144236,
          -49.86917387878929
        ]
      }
    },
    {
      "type": "Feature",
      "properties": {
        "norad_id": 36247,
        "name": "FENGYUN 1C DEB",
        "group": "fengyun-1c-debris",
        "lat": -81.70444721160838,
        "lon": 99.57847308097573,
        "alt_km": 759.8861826320435,
        "timestamp": "2025-12-27T10:28:59.082888+00:00",
        "meta_object_name": "FENGYUN 1C DEB",
        "meta_object_id": "1999-025DVY",
        "meta_epoch": "2025-12-23T18:06:44.758080",
        "meta_mean_motion": 14.33618414,
        "meta_eccentricity": 0.0186555,
        "meta_inclination": 98.2674,
        "meta_ra_of_asc_node": 10.345,
        "meta_arg_of_pericenter": 0.9535,
        "meta_mean_anomaly": 359.197,
        "meta_ephemeris_type": 0,
        "meta_classification_type": "U",
        "meta_norad_cat_id": 36247,
        "meta_element_set_no": 999,
        "meta_rev_at_epoch": 70420,
        "meta_bstar": 0.00052763,
        "meta_mean_motion_dot": 1.729e-05,
        "meta_mean_motion_ddot": 0,
        "tle_line1": "1 36247U 99025DVY 25357.75468470  .00001729  00000+0  52763-3 0  9994",
        "tle_line2": "2 36247  98.2674  10.3450 0186555   0.9535 359.1970 14.33618414704207"
      },
      "geometry": {
        "type": "Point",
        "coordinates": [
          99.57847308097573,
          -81.70444721160838
        ]
      }
    },
    {
      "type": "Feature",
      "properties": {
        "norad_id": 36254,
        "name": "FENGYUN 1C DEB",
        "group": "fengyun-1c-debris",
        "lat": 6.636430520355968,
        "lon": 140.48309675736706,
        "alt_km": 533.8577555941247,
        "timestamp": "2025-12-27T10:28:59.082898+00:00",
        "meta_object_name": "FENGYUN 1C DEB",
        "meta_object_id": "1999-025DWF",
        "meta_epoch": "2025-12-05T14:18:33.769152",
        "meta_mean_motion": 15.16034114,
        "meta_eccentricity": 0.00460205,
        "meta_inclination": 99.5281,
        "meta_ra_of_asc_node": 291.8918,
        "meta_arg_of_pericenter": 66.714,
        "meta_mean_anomaly": 293.892,
        "meta_ephemeris_type": 0,
        "meta_classification_type": "U",
        "meta_norad_cat_id": 36254,
        "meta_element_set_no": 999,
        "meta_rev_at_epoch": 60668,
        "meta_bstar": 0.005730812,
        "meta_mean_motion_dot": 0.00114745,
        "meta_mean_motion_ddot": 0,
        "tle_line1": "1 36254U 99025DWF 25339.59622418  .00114745  00000+0  57308-2 0  9990",
        "tle_line2": "2 36254  99.5281 291.8918 0046020  66.7140 293.8920 15.16034114606685"
      },
      "geometry": {
        "type": "Point",
        "coordinates": [
          140.48309675736706,
          6.636430520355968
        ]
      }
    },
    {
      "type": "Feature",
      "properties": {
        "norad_id": 36255,
        "name": "FENGYUN 1C DEB",
        "group": "fengyun-1c-debris",
        "lat": -27.588820811438623,
        "lon": 98.49553041693133,
        "alt_km": 772.8208778516309,
        "timestamp": "2025-12-27T10:28:59.082909+00:00",
        "meta_object_name": "FENGYUN 1C DEB",
        "meta_object_id": "1999-025DWG",
        "meta_epoch": "2025-12-19T13:28:01.680384",
        "meta_mean_motion": 14.36594643,
        "meta_eccentricity": 0.0064178,
        "meta_inclination": 99.4355,
        "meta_ra_of_asc_node": 274.859,
        "meta_arg_of_pericenter": 143.5444,
        "meta_mean_anomaly": 35.1872,
        "meta_ephemeris_type": 0,
        "meta_classification_type": "U",
        "meta_norad_cat_id": 36255,
        "meta_element_set_no": 999,
        "meta_rev_at_epoch": 64108,
        "meta_bstar": 0.00048244,
        "meta_mean_motion_dot": 1.401e-05,
        "meta_mean_motion_ddot": 0,
        "tle_line1": "1 36255U 99025DWG 25353.56113056  .00001401  00000+0  48244-3 0  9991",
        "tle_line2": "2 36255  99.4355 274.8590 0064178 143.5444  35.1872 14.36594643641084"
      },
      "geometry": {
        "type": "Point",
        "coordinates": [
          98.49553041693133,
          -27.588820811438623
        ]
      }
    },
    {
      "type": "Feature",
      "properties": {
        "norad_id": 36258,
        "name": "FENGYUN 1C DEB",
        "group": "fengyun-1c-debris",
        "lat": -13.142373648204345,
        "lon": -149.4330488964901,
        "alt_km": 695.822157717399,
        "timestamp": "2025-12-27T10:28:59.082919+00:00",
        "meta_object_name": "FENGYUN 1C DEB",
        "meta_object_id": "1999-025DWK",
        "meta_epoch": "2025-12-26T07:34:35.539104",
        "meta_mean_motion": 14.74917455,
        "meta_eccentricity": 0.0173519,
        "meta_inclination": 99.0855,
        "meta_ra_of_asc_node": 31.4506,
        "meta_arg_of_pericenter": 83.6369,
        "meta_mean_anomaly": 278.4566,
        "meta_ephemeris_type": 0,
        "meta_classification_type": "U",
        "meta_norad_cat_id": 36258,
        "meta_element_set_no": 999,
        "meta_rev_at_epoch": 91022,
        "meta_bstar": 0.00031391,
        "meta_mean_motion_dot": 2.616e-05,
        "meta_mean_motion_ddot": 0,
        "tle_line1": "1 36258U 99025DWK 25360.31568911  .00002616  00000+0  31391-3 0  9993",
        "tle_line2": "2 36258  99.0855  31.4506 0173519  83.6369 278.4566 14.74917455910221"
      },
      "geometry": {
        "type": "Point",
        "coordinates": [
          -149.4330488964901,
          -13.142373648204345
        ]
      }
    },
    {
      "type": "Feature",
      "properties": {
        "norad_id": 36260,
        "name": "FENGYUN 1C DEB",
        "group": "fengyun-1c-debris",
        "lat": 75.25137686180486,
        "lon": -32.1884606772111,
        "alt_km": 840.5820338658978,
        "timestamp": "2025-12-27T10:28:59.082929+00:00",
        "meta_object_name": "FENGYUN 1C DEB",
        "meta_object_id": "1999-025DWM",
        "meta_epoch": "2025-12-24T19:20:24.734112",
        "meta_mean_motion": 14.15381135,
        "meta_eccentricity": 0.00153864,
        "meta_inclination": 98.6615,
        "meta_ra_of_asc_node": 0.6385,
        "meta_arg_of_pericenter": 213.0221,
        "meta_mean_anomaly": 146.9994,
        "meta_ephemeris_type": 0,
        "meta_classification_type": "U",
        "meta_norad_cat_id": 36260,
        "meta_element_set_no": 999,
        "meta_rev_at_epoch": 87979,
        "meta_bstar": 0.00015734209,
        "meta_mean_motion_dot": 2.64e-06,
        "meta_mean_motion_ddot": 0,
        "tle_line1": "1 36260U 99025DWM 25358.80584183  .00000264  00000+0  15734-3 0  9996",
        "tle_line2": "2 36260  98.6615   0.6385 0015386 213.0221 146.9994 14.15381135879794"
      },
      "geometry": {
        "type": "Point",
        "coordinates": [
          -32.1884606772111,
          75.25137686180486
        ]
      }
    }
  ]
}